OPTICUBE 04             
1 41851U 16067D   26068.51005515  .00003771  00000+0  24102-3 0  9992
2 41851  98.0811 275.5525 0017089  94.6311 265.6869 15.09188144510131
STARLINK-3207           
1 49756U 21115AJ  26068.48836627 -.00000203  00000+0  53499-5 0  9997
2 49756  53.2170 140.0239 0001529 103.8178 256.2985 15.08835744235647
